NORAD_CAT_ID,OBJECT_NAME,OBJECT_TYPE,EPOCH,MEAN_MOTION,ECCENTRICITY,INCLINATION,RA_OF_ASC_NODE,ARG_OF_PERICENTER,MEAN_ANOMALY,BSTAR,MEAN_MOTION_DOT,MEAN_MOTION_DDOT,TLE_LINE0,TLE_LINE1,TLE_LINE2,SEMIMAJOR_AXIS,PERIOD,APOGEE,PERIGEE,DECAYED
49139.0,STARLINK-3057,PAYLOAD,2024-04-29 20:45:13,14.98326549,0.0003022,69.9994,166.0049,264.9606,95.1208,0.00019185,2.197e-05,0.0,0 STARLINK-3057,1 49139U 21082K   24120.86474179  .00002197  00000-0  19185-3 0  9990,2 49139  69.9994 166.0049 0003022 264.9606  95.1208 14.98326549145286,6950.204,96.107,574.169,569.968,0.0
49139.0,STARLINK-3057,PAYLOAD,2024-04-30 04:45:53,14.98331006,0.0003064,69.9992,165.1634,265.2924,94.7885,0.00018933,2.167e-05,0.0,0 STARLINK-3057,1 49139U 21082K   24121.19853959  .00002167  00000-0  18933-3 0  9991,2 49139  69.9992 165.1634 0003064 265.2924  94.7885 14.98331006145333,6950.19,96.107,574.184,569.925,0.0
49139.0,STARLINK-3057,PAYLOAD,2024-04-30 12:46:34,14.98335625,0.0003132,69.9991,164.3221,265.8897,94.1904,0.00012464,1.395e-05,0.0,0 STARLINK-3057,1 49139U 21082K   24121.53233803  .00001395  00000-0  12464-3 0  9994,2 49139  69.9991 164.3221 0003132 265.8897  94.1904 14.98335625145388,6950.175,96.107,574.217,569.864,0.0
49139.0,STARLINK-3057,PAYLOAD,2024-04-30 20:47:14,14.98332829,0.0003115,69.9991,163.4803,266.002,94.0783,7.9746e-05,8.59e-06,0.0,0 STARLINK-3057,1 49139U 21082K   24121.86613985  .00000859  00000-0  79746-4 0  9994,2 49139  69.9991 163.4803 0003115 266.0020  94.0783 14.98332829145439,6950.184,96.107,574.214,569.884,0.0
49139.0,STARLINK-3057,PAYLOAD,2024-05-01 04:47:54,14.9833019,0.0003102,69.9991,162.6388,265.8055,94.275,7.5572e-05,8.09e-06,0.0,0 STARLINK-3057,1 49139U 21082K   24122.19994165  .00000809  00000-0  75572-4 0  9991,2 49139  69.9991 162.6388 0003102 265.8055  94.2750 14.98330190145489,6950.192,96.107,574.213,569.901,0.0
49139.0,STARLINK-3057,PAYLOAD,2024-05-01 09:36:19,14.98331245,0.0003119,69.999,162.134,266.1212,93.959,6.8796e-05,7.28e-06,0.0,0 STARLINK-3057,1 49139U 21082K   24122.40022097  .00000728  00000-0  68796-4 0  9991,2 49139  69.9990 162.1340 0003119 266.1212  93.9590 14.98331245145512,6950.189,96.107,574.222,569.886,0.0
49139.0,STARLINK-3057,PAYLOAD,2024-05-02 04:49:55,14.98334748,0.0003046,69.999,160.114,266.4511,93.6299,5.9291e-05,6.15e-06,0.0,0 STARLINK-3057,1 49139U 21082K   24123.20133734  .00000615  00000-0  59291-4 0  9996,2 49139  69.9990 160.1140 0003046 266.4511  93.6299 14.98334748145639,6950.178,96.107,574.16,569.926,0.0
49139.0,STARLINK-3057,PAYLOAD,2024-05-02 11:14:27,14.98336331,0.0003013,69.999,159.4407,266.5455,93.5359,8.0699e-05,8.7e-06,0.0,0 STARLINK-3057,1 49139U 21082K   24123.46837500  .00000870  00000-0  80699-4 0  9995,2 49139  69.9990 159.4407 0003013 266.5455  93.5359 14.98336331145678,6950.173,96.107,574.132,569.944,0.0
49139.0,STARLINK-3057,PAYLOAD,2024-05-03 04:51:56,14.98331744,0.0002934,69.999,157.5891,267.9607,92.1216,9.3331e-05,1.021e-05,0.0,0 STARLINK-3057,1 49139U 21082K   24124.20273650  .00001021  00000-0  93331-4 0  9994,2 49139  69.9990 157.5891 0002934 267.9607  92.1216 14.98331744145781,6950.187,96.107,574.092,570.013,0.0
49139.0,STARLINK-3057,PAYLOAD,2024-05-03 11:16:28,14.98331499,0.0002984,69.9989,156.9159,267.7191,92.3627,7.8845e-05,8.48e-06,0.0,0 STARLINK-3057,1 49139U 21082K   24124.46977665  .00000848  00000-0  78845-4 0  9998,2 49139  69.9989 156.9159 0002984 267.7191  92.3627 14.98331499145820,6950.188,96.107,574.127,569.979,0.0
49139.0,STARLINK-3057,PAYLOAD,2024-05-03 19:17:09,14.98329835,0.000298,69.9989,156.0744,268.3878,91.6939,3.1994e-05,2.89e-06,0.0,0 STARLINK-3057,1 49139U 21082K   24124.80357836  .00000289  00000-0  31994-4 0  9991,2 49139  69.9989 156.0744 0002980 268.3878  91.6939 14.98329835145870,6950.193,96.107,574.13,569.987,0.0
49139.0,STARLINK-3057,PAYLOAD,2024-05-04 04:53:57,14.98326693,0.0002937,69.999,155.0647,268.4037,91.6785,-3.6103e-05,-5.24e-06,0.0,0 STARLINK-3057,1 49139U 21082K   24125.20414264 -.00000524  00000-0 -36103-4 0  9996,2 49139  69.9990 155.0647 0002937 268.4037  91.6785 14.98326693145938,6950.203,96.107,574.109,570.027,0.0
49139.0,STARLINK-3057,PAYLOAD,2024-05-05 04:55:58,14.98328219,0.0003033,69.9986,152.5397,269.1818,90.8994,2.2667e-05,1.77e-06,0.0,0 STARLINK-3057,1 49139U 21082K   24126.20554230  .00000177  00000-0  22667-4 0  9997,2 49139  69.9986 152.5397 0003033 269.1818  90.8994 14.98328219146086,6950.198,96.107,574.171,569.955,0.0
49139.0,STARLINK-3057,PAYLOAD,2024-05-05 11:20:31,14.98327579,0.0003032,69.9987,151.8666,269.3968,90.6844,2.0026e-05,1.46e-06,0.0,0 STARLINK-3057,1 49139U 21082K   24126.47258329  .00000146  00000-0  20026-4 0  9999,2 49139  69.9987 151.8666 0003032 269.3968  90.6844 14.98327579146120,6950.2,96.107,574.173,569.958,0.0
49139.0,STARLINK-3057,PAYLOAD,2024-05-05 19:21:11,14.98328585,0.0003061,69.9987,151.0248,269.8674,90.2134,4.9264e-05,4.95e-06,0.0,0 STARLINK-3057,1 49139U 21082K   24126.80638250  .00000495  00000-0  49264-4 0  9993,2 49139  69.9987 151.0248 0003061 269.8674  90.2134 14.98328585146170,6950.197,96.107,574.19,569.935,0.0
49139.0,STARLINK-3057,PAYLOAD,2024-05-06 04:57:59,14.98327753,0.0003116,69.9984,150.0144,269.2774,90.8028,0.00012764,1.43e-05,0.0,0 STARLINK-3057,1 49139U 21082K   24127.20694190  .00001430  00000-0  12764-3 0  9997,2 49139  69.9984 150.0144 0003116 269.2774  90.8028 14.98327753146238,6950.2,96.107,574.231,569.899,0.0
49139.0,STARLINK-3057,PAYLOAD,2024-05-06 11:22:31,14.98330774,0.0003119,69.9984,149.3412,269.4915,90.5886,0.00014006,1.579e-05,0.0,0 STARLINK-3057,1 49139U 21082K   24127.47398073  .00001579  00000-0  14006-3 0  9992,2 49139  69.9984 149.3412 0003119 269.4915  90.5886 14.98330774146279,6950.19,96.107,574.223,569.888,0.0
49139.0,STARLINK-3057,PAYLOAD,2024-05-06 19:23:12,14.98333454,0.0003128,69.9984,148.4996,269.4654,90.6147,0.00014357,1.621e-05,0.0,0 STARLINK-3057,1 49139U 21082K   24127.80777838  .00001621  00000-0  14357-3 0  9996,2 49139  69.9984 148.4996 0003128 269.4654  90.6147 14.98333454146321,6950.182,96.107,574.221,569.873,0.0
49139.0,STARLINK-3057,PAYLOAD,2024-05-07 05:00:00,14.98337255,0.0003139,69.9983,147.4897,269.3137,90.7662,0.00014728,1.665e-05,0.0,0 STARLINK-3057,1 49139U 21082K   24128.20833589  .00001665  00000-0  14728-3 0  9997,2 49139  69.9983 147.4897 0003139 269.3137  90.7662 14.98337255146388,6950.17,96.107,574.217,569.854,0.0
49139.0,STARLINK-3057,PAYLOAD,2024-05-07 11:24:32,14.98338503,0.0003124,69.9984,146.8163,269.2787,90.8014,0.00015585,1.767e-05,0.0,0 STARLINK-3057,1 49139U 21082K   24128.47537401  .00001767  00000-0  15585-3 0  9995,2 49139  69.9984 146.8163 0003124 269.2787  90.8014 14.98338503146426,6950.167,96.106,574.203,569.86,0.0
49139.0,STARLINK-3057,PAYLOAD,2024-05-08 05:02:01,14.98336516,0.0003079,69.9984,144.9647,269.2862,90.7945,7.0333e-05,7.46e-06,0.0,0 STARLINK-3057,1 49139U 21082K   24129.20973485  .00000746  00000-0  70333-4 0  9992,2 49139  69.9984 144.9647 0003079 269.2862  90.7945 14.98336516146531,6950.173,96.107,574.178,569.898,0.0
49139.0,STARLINK-3057,PAYLOAD,2024-05-08 11:26:33,14.98336345,0.0003073,69.9985,144.2914,269.408,90.6727,7.0025e-05,7.43e-06,0.0,0 STARLINK-3057,1 49139U 21082K   24129.47677404  .00000743  00000-0  70025-4 0  9998,2 49139  69.9985 144.2914 0003073 269.4080  90.6727 14.98336345146571,6950.173,96.107,574.174,569.902,0.0
49139.0,STARLINK-3057,PAYLOAD,2024-05-08 17:51:05,14.98334795,0.0003074,69.9985,143.6181,269.4071,90.6736,2.9747e-05,2.62e-06,0.0,0 STARLINK-3057,1 49139U 21082K   24129.74381495  .00000262  00000-0  29747-4 0  9991,2 49139  69.9985 143.6181 0003074 269.4071  90.6736 14.98334795146613,6950.178,96.107,574.18,569.907,0.0
49139.0,STARLINK-3057,PAYLOAD,2024-05-09 05:04:02,14.98334841,0.0003023,69.9987,142.4399,269.7402,90.3411,-1.9322e-05,-3.24e-06,0.0,0 STARLINK-3057,1 49139U 21082K   24130.21113457 -.00000324  00000-0 -19322-4 0  9995,2 49139  69.9987 142.4399 0003023 269.7402  90.3411 14.98334841146684,6950.178,96.107,574.144,569.942,0.0
49139.0,STARLINK-3057,PAYLOAD,2024-05-09 09:52:26,14.98332848,0.0003036,69.9987,141.9351,269.1191,90.9621,-3.6287e-05,-5.26e-06,0.0,0 STARLINK-3057,1 49139U 21082K   24130.41141551 -.00000526  00000-0 -36287-4 0  9996,2 49139  69.9987 141.9351 0003036 269.1191  90.9621 14.98332848146717,6950.184,96.107,574.159,569.939,0.0
49139.0,STARLINK-3057,PAYLOAD,2024-05-09 17:53:06,14.98333385,0.0003035,69.9988,141.0934,269.0393,91.0418,6.144e-06,-2e-07,0.0,0 STARLINK-3057,1 49139U 21082K   24130.74521443 -.00000020  00000-0  61440-5 0  9992,2 49139  69.9988 141.0934 0003035 269.0393  91.0418 14.98333385146766,6950.182,96.107,574.157,569.938,0.0
49139.0,STARLINK-3057,PAYLOAD,2024-05-10 09:54:27,14.9833329,0.000308,69.9987,139.41,268.72,91.3607,4.1099e-05,3.97e-06,0.0,0 STARLINK-3057,1 49139U 21082K   24131.41281291  .00000397  00000-0  41099-4 0  9994,2 49139  69.9987 139.4100 0003080 268.7200  91.3607 14.98333290146863,6950.183,96.107,574.188,569.907,0.0
49139.0,STARLINK-3057,PAYLOAD,2024-05-10 17:55:07,14.9833344,0.0003106,69.9987,138.5684,269.2521,90.8283,7.0716e-05,7.51e-06,0.0,0 STARLINK-3057,1 49139U 21082K   24131.74661189  .00000751  00000-0  70716-4 0  9990,2 49139  69.9987 138.5684 0003106 269.2521  90.8283 14.98333440146918,6950.182,96.107,574.206,569.889,0.0
49139.0,STARLINK-3057,PAYLOAD,2024-05-11 09:56:26,14.98358504,0.0003062,69.9986,136.8852,268.7705,91.3104,0.00043166,5.065e-05,0.0,0 STARLINK-3057,1 49139U 21082K   24132.41419617  .00005065  00000-0  43166-3 0  9993,2 49139  69.9986 136.8852 0003062 268.7705  91.3104 14.98358504147012,6950.105,96.105,574.098,569.842,0.0
49139.0,STARLINK-3057,PAYLOAD,2024-05-11 17:57:08,14.98336415,0.0002144,70.0029,136.0449,286.3499,73.7424,0.00019008,2.176e-05,0.0,0 STARLINK-3057,1 49139U 21082K   24132.74801220  .00002176  00000-0  19008-3 0  9992,2 49139  70.0029 136.0449 0002144 286.3499  73.7424 14.98336415147064,6950.173,96.107,573.528,570.548,0.0
